[{"OBJECT_NAME":"STARLINK-5058","OBJECT_ID":"2023-015H","EPOCH":"2026-03-09T02:32:22.301088","MEAN_MOTION":15.02731068,"ECCENTRICITY":6.189e-5,"INCLINATION":43.0045,"RA_OF_ASC_NODE":329.3796,"ARG_OF_PERICENTER":311.3387,"MEAN_ANOMALY":48.7402,"EPHEMERIS_TYPE":0,"CLASSIFICATION_TYPE":"U","NORAD_CAT_ID":55456,"ELEMENT_SET_NO":999,"REV_AT_EPOCH":17066,"BSTAR":0.0019281234,"MEAN_MOTION_DOT":0.00026074,"MEAN_MOTION_DDOT":0},{"OBJECT_NAME":"FENGYUN 1C DEB","OBJECT_ID":"1999-025DRB","EPOCH":"2026-03-08T17:06:23.542272","MEAN_MOTION":14.91461657,"ECCENTRICITY":0.00586124,"INCLINATION":98.8697,"RA_OF_ASC_NODE":161.9577,"ARG_OF_PERICENTER":340.9686,"MEAN_ANOMALY":18.9339,"EPHEMERIS_TYPE":0,"CLASSIFICATION_TYPE":"U","NORAD_CAT_ID":35243,"ELEMENT_SET_NO":999,"REV_AT_EPOCH":92280,"BSTAR":0.0026680093,"MEAN_MOTION_DOT":0.00027599,"MEAN_MOTION_DDOT":0}]
